NORAD_CAT_ID,OBJECT_NAME,OBJECT_TYPE,EPOCH,MEAN_MOTION,ECCENTRICITY,INCLINATION,RA_OF_ASC_NODE,ARG_OF_PERICENTER,MEAN_ANOMALY,BSTAR,MEAN_MOTION_DOT,MEAN_MOTION_DDOT,TLE_LINE0,TLE_LINE1,TLE_LINE2,SEMIMAJOR_AXIS,PERIOD,APOGEE,PERIGEE,DECAYED
49730.0,STARLINK-3249,PAYLOAD,2023-09-11 02:56:43,15.07202141,0.0001468,53.2168,286.9621,90.9157,269.2003,6.2617e-05,6.7e-06,0.0,0 STARLINK-3249,1 49730U 21115G   23254.12272437  .00000670  00000-0  62617-4 0  9996,2 49730  53.2168 286.9621 0001468  90.9157 269.2003 15.07202141 99030,6922.891,95.541,545.772,543.74,0.0
49730.0,STARLINK-3249,PAYLOAD,2023-09-11 09:18:40,15.07206956,0.0001372,53.216,285.7744,91.7983,268.3165,0.00015091,2.015e-05,0.0,0 STARLINK-3249,1 49730U 21115G   23254.38797079  .00002015  00000-0  15091-3 0  9996,2 49730  53.2160 285.7744 0001372  91.7983 268.3165 15.07206956 97962,6922.876,95.541,545.691,543.792,0.0
49730.0,STARLINK-3249,PAYLOAD,2023-09-12 09:11:00,15.07210292,0.0001428,53.2163,281.3204,93.8351,266.2804,0.00012028,1.548e-05,0.0,0 STARLINK-3249,1 49730U 21115G   23255.38264750  .00001548  00000-0  12028-3 0  9999,2 49730  53.2163 281.3204 0001428  93.8351 266.2804 15.07210292 99228,6922.866,95.541,545.72,543.743,0.0
49730.0,STARLINK-3249,PAYLOAD,2023-09-12 10:46:30,15.07210783,0.0001895,53.2164,281.0234,105.2957,254.8244,0.00017152,2.329e-05,0.0,0 STARLINK-3249,1 49730U 21115G   23255.44895952  .00002329  00000-0  17152-3 0  9991,2 49730  53.2164 281.0234 0001895 105.2957 254.8244 15.07210783 98121,6922.865,95.541,546.042,543.418,0.0
49730.0,STARLINK-3249,PAYLOAD,2023-09-13 10:38:50,15.0721661,0.0001478,53.216,276.5694,93.1263,266.9897,0.00026305,3.724e-05,0.0,0 STARLINK-3249,1 49730U 21115G   23256.44363436  .00003724  00000-0  26305-3 0  9999,2 49730  53.2160 276.5694 0001478  93.1263 266.9897 15.07216610 98277,6922.847,95.54,545.735,543.689,0.0
49730.0,STARLINK-3249,PAYLOAD,2023-09-13 18:36:17,15.07201509,0.0001757,53.2162,275.0851,84.8169,275.3022,-2.1212e-06,-3.16e-06,0.0,0 STARLINK-3249,1 49730U 21115G   23256.77520278 -.00000316  00000-0 -21212-5 0  9994,2 49730  53.2162 275.0851 0001757  84.8169 275.3022 15.07201509 98321,6922.893,95.541,545.974,543.542,0.0
49730.0,STARLINK-3249,PAYLOAD,2023-09-14 08:55:42,15.07194584,0.0001557,53.2159,272.4124,85.1838,274.9331,-7.4932e-05,-1.423e-05,0.0,0 STARLINK-3249,1 49730U 21115G   23257.37201586 -.00001423  00000-0 -74932-4 0  9995,2 49730  53.2159 272.4124 0001557  85.1838 274.9331 15.07194584 99521,6922.914,95.542,545.857,543.701,0.0
49730.0,STARLINK-3249,PAYLOAD,2023-09-14 10:31:08,15.07256484,0.0001087,53.216,272.1153,110.7882,249.3226,0.00086744,0.00012963,0.0,0 STARLINK-3249,1 49730U 21115G   23257.43829452  .00012963  00000-0  86744-3 0  9992,2 49730  53.2160 272.1153 0001087 110.7882 249.3226 15.07256484 98429,6922.725,95.538,545.342,543.837,0.0
49730.0,STARLINK-3249,PAYLOAD,2023-09-14 20:03:58,15.07352242,7.11e-05,53.216,270.3334,124.6583,235.4475,0.0020447,0.00031103,0.0,0 STARLINK-3249,1 49730U 21115G   23257.83609145  .00031103  00000-0  20447-2 0  9995,2 49730  53.2160 270.3334 0000711 124.6583 235.4475 15.07352242 99595,6922.432,95.532,544.789,543.804,0.0
49730.0,STARLINK-3249,PAYLOAD,2023-09-15 07:12:04,15.07622301,0.0002281,53.2157,268.2521,73.7317,286.3925,0.0050776,0.00078763,0.0,0 STARLINK-3249,1 49730U 21115G   23258.30005567  .00078763  00000-0  50776-2 0  9997,2 49730  53.2157 268.2521 0002281  73.7317 286.3925 15.07622301 99667,6921.605,95.515,545.049,541.891,0.0
49730.0,STARLINK-3249,PAYLOAD,2023-09-15 13:33:42,15.07897708,0.0001641,53.2157,267.063,120.3787,239.7367,0.0082437,0.00129954,0.0,0 STARLINK-3249,1 49730U 21115G   23258.56507197  .00129954  00000-0  82437-2 0  9999,2 49730  53.2157 267.0630 0001641 120.3787 239.7367 15.07897708 98592,6920.762,95.497,543.763,541.491,0.0
49730.0,STARLINK-3249,PAYLOAD,2023-09-15 15:09:06,15.07957795,0.0001322,53.2157,266.7658,110.39,249.7234,0.0088674,0.00140241,0.0,0 STARLINK-3249,1 49730U 21115G   23258.63132736  .00140241  00000-0  88674-2 0  9991,2 49730  53.2157 266.7658 0001322 110.3900 249.7234 15.07957795 99712,6920.578,95.493,543.358,541.528,0.0
49730.0,STARLINK-3249,PAYLOAD,2023-09-16 00:41:36,15.08157116,0.0001788,53.2156,264.9833,89.2847,270.835,0.0098038,0.0015628,0.0,0 STARLINK-3249,1 49730U 21115G   23259.02889298  .00156280  00000-0  98038-2 0  9992,2 49730  53.2156 264.9833 0001788  89.2847 270.8350 15.08157116 99776,6919.968,95.481,543.071,540.596,0.0
49730.0,STARLINK-3249,PAYLOAD,2023-09-16 14:00:01,15.08834293,0.0001205,53.2151,262.4946,73.052,60.1654,0.00021472,3.131e-05,0.0,0 STARLINK-3249,1 49730U 21115G   23259.58334491  .00003131  00000-0  21472-3 0  9998,2 49730  53.2151 262.4946 0001205  73.0520  60.1654 15.08834293 99867,6917.898,95.438,540.596,538.929,0.0
49730.0,STARLINK-3249,PAYLOAD,2023-09-17 14:00:01,15.08844707,0.0001237,53.2156,258.005,78.2658,89.733,-0.00066051,-0.00010786,0.0,0 STARLINK-3249,1 49730U 21115G   23260.58334491 -.00010786  00000-0 -66051-3 0  9998,2 49730  53.2156 258.0050 0001237  78.2658  89.7330 15.08844707  5858,6917.866,95.437,540.587,538.875,0.0
49730.0,STARLINK-3249,PAYLOAD,2023-09-17 22:00:00,15.08825367,0.0001219,53.2159,256.5072,91.7828,87.8159,0.0028458,0.00045276,0.0,0 STARLINK-3249,1 49730U 21115G   23260.91667824  .00045276  00000-0  28458-2 0  9992,2 49730  53.2159 256.5072 0001219  91.7828  87.8159 15.08825367100065,6917.925,95.438,540.633,538.947,0.0
49730.0,STARLINK-3249,PAYLOAD,2023-09-18 14:00:01,15.08836198,0.0001218,53.2157,253.5156,91.2389,111.5727,-0.00069806,-0.00011379,0.0,0 STARLINK-3249,1 49730U 21115G   23261.58334491 -.00011379  00000-0 -69806-3 0  9999,2 49730  53.2157 253.5156 0001218  91.2389 111.5727 15.08836198100160,6917.892,95.438,540.6,538.914,0.0
49730.0,STARLINK-3249,PAYLOAD,2023-09-18 22:00:00,15.08821566,0.0001253,53.2159,252.0179,103.744,110.6577,0.0029679,0.00047239,0.0,0 STARLINK-3249,1 49730U 21115G   23261.91667824  .00047239  00000-0  29679-2 0  9990,2 49730  53.2159 252.0179 0001253 103.7440 110.6577 15.08821566  5752,6917.937,95.439,540.669,538.935,0.0
49730.0,STARLINK-3249,PAYLOAD,2023-09-19 06:00:00,15.08889128,0.0001249,53.2159,250.5233,90.1812,135.8205,-0.0067121,-0.00105688,0.0,0 STARLINK-3249,1 49730U 21115G   23262.25001157 -.00105688  00000-0 -67121-2 0  9998,2 49730  53.2159 250.5233 0001249  90.1812 135.8205 15.08889128100260,6917.73,95.434,540.459,538.731,0.0
49730.0,STARLINK-3249,PAYLOAD,2023-09-19 14:00:01,15.08821083,0.0001214,53.2156,249.0264,84.7232,152.8933,-0.00038977,-6.482e-05,0.0,0 STARLINK-3249,1 49730U 21115G   23262.58334491 -.00006482  00000-0 -38977-3 0  9994,2 49730  53.2156 249.0264 0001214  84.7232 152.8933 15.08821083100310,6917.938,95.439,540.643,538.963,0.0
49730.0,STARLINK-3249,PAYLOAD,2023-09-20 08:01:44,15.08837296,0.0001286,53.2169,245.6556,90.939,269.175,-2.024e-05,-6.1e-06,0.0,0 STARLINK-3249,1 49730U 21115G   23263.33453837 -.00000610  00000-0 -20240-4 0  9996,2 49730  53.2169 245.6556 0001286  90.9390 269.1750 15.08837296100427,6917.889,95.438,540.643,538.864,0.0
49730.0,STARLINK-3249,PAYLOAD,2023-09-20 15:58:40,15.08833291,0.0001287,53.2171,244.1687,89.8714,270.2426,-1.0128e-05,-4.49e-06,0.0,0 STARLINK-3249,1 49730U 21115G   23263.66574178 -.00000449  00000-0 -10128-4 0  9998,2 49730  53.2171 244.1687 0001287  89.8714 270.2426 15.08833291 99361,6917.901,95.438,540.656,538.876,0.0
49730.0,STARLINK-3249,PAYLOAD,2023-09-21 07:52:31,15.08840701,0.0001345,53.2162,241.1941,87.2125,272.9021,0.00013112,1.8e-05,0.0,0 STARLINK-3249,1 49730U 21115G   23264.32813850  .00001800  00000-0  13112-3 0  9990,2 49730  53.2162 241.1941 0001345  87.2125 272.9021 15.08840701 99469,6917.878,95.438,540.674,538.813,0.0
49730.0,STARLINK-3249,PAYLOAD,2023-09-21 15:49:26,15.08842479,0.0001333,53.2163,239.7076,88.2129,271.9016,0.00012466,1.697e-05,0.0,0 STARLINK-3249,1 49730U 21115G   23264.65933869  .00001697  00000-0  12466-3 0  9994,2 49730  53.2163 239.7076 0001333  88.2129 271.9016 15.08842479100622,6917.873,95.437,540.66,538.816,0.0
49730.0,STARLINK-3249,PAYLOAD,2023-09-22 04:32:32,15.08848319,0.0001403,53.2157,237.3291,87.0053,273.1099,0.00043821,6.695e-05,0.0,0 STARLINK-3249,1 49730U 21115G   23265.18925945  .00006695  00000-0  43821-3 0  9991,2 49730  53.2157 237.3291 0001403  87.0053 273.1099 15.08848319 99596,6917.855,95.437,540.691,538.749,0.0
49730.0,STARLINK-3249,PAYLOAD,2023-09-22 15:40:13,15.08847628,0.000137,53.2163,235.2468,81.924,278.1908,0.00031306,4.699e-05,0.0,0 STARLINK-3249,1 49730U 21115G   23265.65293934  .00004699  00000-0  31306-3 0  9996,2 49730  53.2163 235.2468 0001370  81.9240 278.1908 15.08847628 99664,6917.857,95.437,540.67,538.774,0.0
49730.0,STARLINK-3249,PAYLOAD,2023-09-23 02:47:55,15.088474,0.0001426,53.2161,233.1654,92.3087,267.8068,0.00025089,3.708e-05,0.0,0 STARLINK-3249,1 49730U 21115G   23266.11661928  .00003708  00000-0  25089-3 0  9991,2 49730  53.2161 233.1654 0001426  92.3087 267.8068 15.08847400100846,6917.858,95.437,540.709,538.736,0.0
49730.0,STARLINK-3249,PAYLOAD,2023-09-23 04:23:18,15.08848289,0.0001472,53.2162,232.8677,87.5289,272.5872,0.00022809,3.345e-05,0.0,0 STARLINK-3249,1 49730U 21115G   23266.18285864  .00003345  00000-0  22809-3 0  9993,2 49730  53.2162 232.8677 0001472  87.5289 272.5872 15.08848289 99747,6917.855,95.437,540.738,538.702,0.0
49730.0,STARLINK-3249,PAYLOAD,2023-09-24 04:14:05,15.08850414,0.0001372,53.2165,228.4056,92.4257,267.6892,0.0001923,2.775e-05,0.0,0 STARLINK-3249,1 49730U 21115G   23267.17645533  .00002775  00000-0  19230-3 0  9996,2 49730  53.2165 228.4056 0001372  92.4257 267.6892 15.08850414101004,6917.849,95.437,540.663,538.764,0.0
49730.0,STARLINK-3249,PAYLOAD,2023-09-24 07:24:51,15.08851503,0.0001373,53.2165,227.8108,92.6466,267.4683,0.0002259,3.31e-05,0.0,0 STARLINK-3249,1 49730U 21115G   23267.30893458  .00003310  00000-0  22590-3 0  9991,2 49730  53.2165 227.8108 0001373  92.6466 267.4683 15.08851503 99912,6917.845,95.437,540.66,538.76,0.0
